GSAT0101 (GALILEO-PFM)  
1 37846U 11060A   25196.14856451 -.00000074  00000+0  00000+0 0  9993
2 37846  57.0901 350.9008 0002374  59.2107 300.8129  1.70475682 85373
GSAT0102 (GALILEO-FM2)  
1 37847U 11060B   25196.66629263 -.00000075  00000+0  00000+0 0  9991
2 37847  57.0906 350.8872 0002170   7.0000 356.1302  1.70475824 85391
GSAT0103 (GALILEO-FM3)  
1 38857U 12055A   25194.42864048  .00000001  00000+0  00000+0 0  9990
2 38857  55.6017 110.8514 0004085 295.9852  63.9882  1.70473519 79238
GSAT0201 (GALILEO 5)    
1 40128U 14050A   25197.08911190 -.00000050  00000+0  00000+0 0  9992
2 40128  49.2404 287.1530 1635038 166.5082 198.5007  1.85519620 72084
GSAT0202 (GALILEO 6)    
1 40129U 14050B   25197.34591900 -.00000050  00000+0  00000+0 0  9995
2 40129  49.2559 286.2246 1635307 167.2829 197.4492  1.85520283 74250
GSAT0203 (GALILEO 7)    
1 40544U 15017A   25197.10035085 -.00000076  00000+0  00000+0 0  9999
2 40544  56.8840 350.7556 0002521 249.8801 110.0940  1.70475981 63470
GSAT0204 (GALILEO 8)    
1 40545U 15017B   25196.76879294 -.00000076  00000+0  00000+0 0  9999
2 40545  56.8904 350.7818 0002667 226.6355 133.3433  1.70475646 26518
GSAT0205 (GALILEO 9)    
1 40889U 15045A   25195.95028939  .00000071  00000+0  00000+0 0  9997
2 40889  55.0576 230.9196 0002855  16.4890 343.5930  1.70473661 61264
GSAT0206 (GALILEO 10)   
1 40890U 15045B   25194.99779093  .00000074  00000+0  00000+0 0  9999
2 40890  55.0565 230.9411 0002784 294.3227  65.7266  1.70473560 61270
GSAT0209 (GALILEO 12)   
1 41174U 15079A   25196.33963348  .00000003  00000+0  00000+0 0  9992
2 41174  55.6227 110.5118 0004655 338.3093  21.6940  1.70473723 59035
GSAT0208 (GALILEO 11)   
1 41175U 15079B   25196.55967857  .00000002  00000+0  00000+0 0  9995
2 41175  55.6212 110.5032 0004009 344.4797  15.5312  1.70473583 59452
GSAT0211 (GALILEO 14)   
1 41549U 16030A   25195.51007942  .00000073  00000+0  00000+0 0  9991
2 41549  55.2059 230.9806 0003602 306.4667  53.5756  1.70473631 56916
GSAT0210 (GALILEO 13)   
1 41550U 16030B   25194.59469230  .00000076  00000+0  00000+0 0  9995
2 41550  55.2055 231.0041 0004434 236.8321 123.2065  1.70473920 56878
GSAT0207 (GALILEO 15)   
1 41859U 16069A   25193.11348071 -.00000005  00000+0  00000+0 0  9998
2 41859  55.2891 110.5069 0004768 322.3815  37.5922  1.70473702 53603
GSAT0212 (GALILEO 16)   
1 41860U 16069B   25196.48685286  .00000002  00000+0  00000+0 0  9991
2 41860  55.2880 110.4090 0003946 354.8573   5.1617  1.70473842 53915
GSAT0213 (GALILEO 17)   
1 41861U 16069C   25195.09497455  .00000002  00000+0  00000+0 0  9997
2 41861  55.2900 110.4551 0004300 304.6853  55.2936  1.70474207 53758
GSAT0214 (GALILEO 18)   
1 41862U 16069D   25196.41388500  .00000002  00000+0  00000+0 0  9995
2 41862  55.2890 110.4115 0003493 311.8381  48.1551  1.70473874 53901
GSAT0215 (GALILEO 19)   
1 43055U 17079A   25196.90381920  .00000070  00000+0  00000+0 0  9991
2 43055  55.1831 230.7586 0003652 260.3350  99.6925  1.70474342 47258
GSAT0216 (GALILEO 20)   
1 43056U 17079B   25197.19521055  .00000070  00000+0  00000+0 0  9999
2 43056  55.1835 230.7506 0004660 270.4738  89.5407  1.70474472 47276
GSAT0217 (GALILEO 21)   
1 43057U 17079C   25193.30980672  .00000081  00000+0  00000+0 0  9995
2 43057  55.1825 230.8561 0004053 283.2597  76.7845  1.70474355 47194
GSAT0218 (GALILEO 22)   
1 43058U 17079D   25197.04933855  .00000070  00000+0  00000+0 0  9990
2 43058  55.1816 230.7504 0005277 268.3762  91.6316  1.70474408 47286
GSAT0221 (GALILEO 25)   
1 43564U 18060A   25196.95186978 -.00000075  00000+0  00000+0 0  9994
2 43564  57.2649 350.8594 0002549 279.2649  80.7073  1.70475958 43435
GSAT0222 (GALILEO 26)   
1 43565U 18060B   25193.06489265 -.00000073  00000+0  00000+0 0  9997
2 43565  57.2692 350.9665 0002527 229.1117 130.8646  1.70475798 43417
GSAT0219 (GALILEO 23)   
1 43566U 18060C   25196.80572722 -.00000075  00000+0  00000+0 0  9996
2 43566  57.2676 350.8677 0001692 295.9499  64.0336  1.70475925 43458
GSAT0220 (GALILEO 24)   
1 43567U 18060D   25196.43998349 -.00000074  00000+0  00000+0 0  9992
2 43567  57.2678 350.8782 0001956 284.6815  75.2973  1.70475679 43433
GSAT0223 (GALILEO 27)   
1 49809U 21116A   25197.47345042 -.00000076  00000+0  00000+0 0  9996
2 49809  57.2566 350.7421 0002443 186.3161 178.5794  1.70475841 22466
GSAT0224 (GALILEO 28)   
1 49810U 21116B   25194.93377293 -.00000073  00000+0  00000+0 0  9996
2 49810  57.2587 350.8090 0001893 167.9226 190.8787  1.70476044 22431
GSAT0225 (GALILEO 29)   
1 59598U 24079A   25194.65633679  .00000001  00000+0  00000+0 0  9993
2 59598  54.9076 110.5513 0001440 261.7978 278.9365  1.70474079  7549
GSAT0227 (GALILEO 30)   
1 59600U 24079C   25196.89160746  .00000001  00000+0  00000+0 0  9995
2 59600  54.9042 110.4878 0001631  63.3091 296.7301  1.70473925  7630
GSAT0232 (GALILEO 32)   
1 61182U 24167A   25197.12223403  .00000071  00000+0  00000+0 0  9995
2 61182  55.2934 230.5331 0005274 227.3243 109.2963  1.70473865  5147
GSAT0226 (GALILEO 31)   
1 61183U 24167B   25194.98706308  .00000075  00000+0  00000+0 0  9991
2 61183  55.2927 230.5975 0003025 222.7625 356.0561  1.70474129  5082
